ORBCOMM FM24 [-]        
1 25478U 98053D   24018.45123404  .00002010  00000+0  74657-3 0  9993
2 25478  45.0070 188.4912 0001964 166.0734 194.0167 14.35128169323280
ORBCOMM FM25 [-]        
1 25479U 98053E   24018.55539217  .00002257  00000+0  83231-3 0  9999
2 25479  45.0056 186.2374 0004476 182.3481 177.7346 14.35112056323593
ORBCOMM FM26 [-]        
1 25480U 98053F   24018.52118649  .00002177  00000+0  81228-3 0  9995
2 25480  45.0059 180.0743 0006350 203.5246 156.5311 14.34635042323533
ORBCOMM FM27 [+]        
1 25481U 98053G   24018.54179744  .00002158  00000+0  79839-3 0  9995
2 25481  45.0045 186.5627 0000363 171.8006 188.2847 14.35089348323528
ORBCOMM FM28 [-]        
1 25482U 98053H   24018.42496287  .00002330  00000+0  85010-3 0  9997
2 25482  45.0054 125.9734 0005488 229.8862 130.1505 14.35561708324176
ORBCOMM FM30 [-]        
1 25980U 99065A   24017.93709262  .00002270  00000+0  84223-3 0  9997
2 25980  45.0333   8.2480 0008082 301.0411  58.9642 14.34775821260244
ORBCOMM FM31 [-]        
1 25981U 99065B   24018.32111754  .00002187  00000+0  81318-3 0  9994
2 25981  45.0245   0.2180 0004989 317.9668  42.0796 14.34791871259850
ORBCOMM FM32 [+]        
1 25982U 99065C   24018.43037151  .00002078  00000+0  79090-3 0  9998
2 25982  45.0175  12.6853 0007201 322.0403  37.9935 14.33767559260519
